[{"OBJECT_NAME":"OBJECT K","OBJECT_ID":"2024-092K","EPOCH":"2026-03-09T22:27:09.905184","MEAN_MOTION":15.32834875,"ECCENTRICITY":0.00087198,"INCLINATION":97.6413,"RA_OF_ASC_NODE":198.1023,"ARG_OF_PERICENTER":142.4952,"MEAN_ANOMALY":217.69,"EPHEMERIS_TYPE":0,"CLASSIFICATION_TYPE":"U","NORAD_CAT_ID":59809,"ELEMENT_SET_NO":999,"REV_AT_EPOCH":10001,"BSTAR":0.0007267688,"MEAN_MOTION_DOT":0.00023035,"MEAN_MOTION_DDOT":0},{"OBJECT_NAME":"STARLINK-36160","OBJECT_ID":"2025-286M","EPOCH":"2026-03-09T22:44:31.582464","MEAN_MOTION":15.30186826,"ECCENTRICITY":0.00015011,"INCLINATION":53.1612,"RA_OF_ASC_NODE":357.4384,"ARG_OF_PERICENTER":63.5832,"MEAN_ANOMALY":296.5322,"EPHEMERIS_TYPE":0,"CLASSIFICATION_TYPE":"U","NORAD_CAT_ID":66936,"ELEMENT_SET_NO":999,"REV_AT_EPOCH":1544,"BSTAR":0.0015218668,"MEAN_MOTION_DOT":0.00044969,"MEAN_MOTION_DDOT":0}]
